{"type": "FeatureCollection", "features": [ {"type": "Feature", "properties": {"norad_id": 34303, "name": "COSMOS 2251 DEB", "group": "cosmos-2251-debris", "lat": 17.970772168941615, "lon": -82.87775719630135, "alt_km": 626.6875053024551, "timestamp": "2025-12-21T07:34:34.908566+00:00", "meta": {"OBJECT_NAME": "COSMOS 2251 DEB", "OBJECT_ID": "1993-036MZ", "EPOCH": "2025-12-20T20:11:27.717792", "MEAN_MOTION": 14.54550197, "ECCENTRICITY": 0.01354133, "INCLINATION": 74.0059, "RA_OF_ASC_NODE": 272.6831, "ARG_OF_PERICENTER": 48.9916, "MEAN_ANOMALY": 7.5167, "EPHEMERIS_TYPE": 0, "CLASSIFICATION_TYPE": "U", "NORAD_CAT_ID": 34303, "ELEMENT_SET_NO": 999, "REV_AT_EPOCH": 88080, "BSTAR": 0.00095481201, "MEAN_MOTION_DOT": 4.576e-05, "MEAN_MOTION_DDOT": 0}, "tle": {"line1": "1 34303U 93036MZ  25354.84129303  .00004576  00000+0  95481-3 0  9994", "line2": "2 34303  74.0059 272.6831 0135413  48.9916   7.5167 14.54550197880804"}}, "geometry": {"type": "Point", "coordinates": [-82.87775719630135, 17.970772168941615]}}, {"type": "Feature", "properties": {"norad_id": 34304, "name": "COSMOS 2251 DEB", "group": "cosmos-2251-debris", "lat": -19.092067942894232, "lon": 101.08115481669957, "alt_km": 780.7953645736279, "timestamp": "2025-12-21T07:34:34.908575+00:00", "meta": {"OBJECT_NAME": "COSMOS 2251 DEB", "OBJECT_ID": "1993-036NA", "EPOCH": "2025-12-20T18:54:30.430944", "MEAN_MOTION": 14.37928949, "ECCENTRICITY": 0.01290279, "INCLINATION": 74.0136, "RA_OF_ASC_NODE": 107.749, "ARG_OF_PERICENTER": 243.9015, "MEAN_ANOMALY": 243.6126, "EPHEMERIS_TYPE": 0, "CLASSIFICATION_TYPE": "U", "NORAD_CAT_ID": 34304, "ELEMENT_SET_NO": 999, "REV_AT_EPOCH": 87412, "BSTAR": 0.0010160181, "MEAN_MOTION_DOT": 3.352e-05, "MEAN_MOTION_DDOT": 0}, "tle": {"line1": "1 34304U 93036NA  25354.78785221  .00003352  00000+0  10160-2 0  9996", "line2": "2 34304  74.0136 107.7490 0129027 243.9015 243.6126 14.37928949874122"}}, "geometry": {"type": "Point", "coordinates": [101.08115481669957, -19.092067942894232]}}, {"type": "Feature", "properties": {"norad_id": 34307, "name": "COSMOS 2251 DEB", "group": "cosmos-2251-debris", "lat": 51.316424390117206, "lon": 98.43367932214812, "alt_km": 760.1585338353243, "timestamp": "2025-12-21T07:34:34.908584+00:00", "meta": {"OBJECT_NAME": "COSMOS 2251 DEB", "OBJECT_ID": "1993-036ND", "EPOCH": "2025-12-20T22:26:27.244320", "MEAN_MOTION": 13.54332602, "ECCENTRICITY": 0.03918647, "INCLINATION": 74.0537, "RA_OF_ASC_NODE": 299.9649, "ARG_OF_PERICENTER": 129.1031, "MEAN_ANOMALY": 301.5897, "EPHEMERIS_TYPE": 0, "CLASSIFICATION_TYPE": "U", "NORAD_CAT_ID": 34307, "ELEMENT_SET_NO": 999, "REV_AT_EPOCH": 82973, "BSTAR": 0.00053741723, "MEAN_MOTION_DOT": 5.79e-06, "MEAN_MOTION_DDOT": 0}, "tle": {"line1": "1 34307U 93036ND  25354.93503755  .00000579  00000+0  53742-3 0  9998", "line2": "2 34307  74.0537 299.9649 0391864 129.1031 301.5897 13.54332602829732"}}, "geometry": {"type": "Point", "coordinates": [98.43367932214812, 51.316424390117206]}}, {"type": "Feature", "properties": {"norad_id": 34313, "name": "COSMOS 2251 DEB", "group": "cosmos-2251-debris", "lat": -21.17738794607086, "lon": -78.94460458545886, "alt_km": 509.4332966846205, "timestamp": "2025-12-21T07:34:34.908593+00:00", "meta": {"OBJECT_NAME": "COSMOS 2251 DEB", "OBJECT_ID": "1993-036NK", "EPOCH": "2025-12-20T20:37:07.702752", "MEAN_MOTION": 15.20386559, "ECCENTRICITY": 0.00121367, "INCLINATION": 73.9714, "RA_OF_ASC_NODE": 288.4111, "ARG_OF_PERICENTER": 68.7685, "MEAN_ANOMALY": 291.4808, "EPHEMERIS_TYPE": 0, "CLASSIFICATION_TYPE": "U", "NORAD_CAT_ID": 34313, "ELEMENT_SET_NO": 999, "REV_AT_EPOCH": 89188, "BSTAR": 0.0028461656, "MEAN_MOTION_DOT": 0.00062635, "MEAN_MOTION_DDOT": 0}, "tle": {"line1": "1 34313U 93036NK  25354.85911693  .00062635  00000+0  28462-2 0  9991", "line2": "2 34313  73.9714 288.4111 0012136  68.7685 291.4808 15.20386559891885"}}, "geometry": {"type": "Point", "coordinates": [-78.94460458545886, -21.17738794607086]}}, {"type": "Feature", "properties": {"norad_id": 34314, "name": "COSMOS 2251 DEB", "group": "cosmos-2251-debris", "lat": 72.28455553603278, "lon": -3.0410771844006224, "alt_km": 774.183662558512, "timestamp": "2025-12-21T07:34:34.908601+00:00", "meta": {"OBJECT_NAME": "COSMOS 2251 DEB", "OBJECT_ID": "1993-036NL", "EPOCH": "2025-12-20T21:17:34.691712", "MEAN_MOTION": 14.17441793, "ECCENTRICITY": 0.01032675, "INCLINATION": 74.006, "RA_OF_ASC_NODE": 293.8435, "ARG_OF_PERICENTER": 37.596, "MEAN_ANOMALY": 18.3232, "EPHEMERIS_TYPE": 0, "CLASSIFICATION_TYPE": "U", "NORAD_CAT_ID": 34314, "ELEMENT_SET_NO": 999, "REV_AT_EPOCH": 86773, "BSTAR": 0.00053830837, "MEAN_MOTION_DOT": 1.125e-05, "MEAN_MOTION_DDOT": 0}, "tle": {"line1": "1 34314U 93036NL  25354.88720708  .00001125  00000+0  53831-3 0  9996", "line2": "2 34314  74.0060 293.8435 0103267  37.5960  18.3232 14.17441793867738"}}, "geometry": {"type": "Point", "coordinates": [-3.0410771844006224, 72.28455553603278]}}, {"type": "Feature", "properties": {"norad_id": 34316, "name": "COSMOS 2251 DEB", "group": "cosmos-2251-debris", "lat": 48.79689647947432, "lon": -21.247777960876043, "alt_km": 580.6692263773766, "timestamp": "2025-12-21T07:34:34.908610+00:00", "meta": {"OBJECT_NAME": "COSMOS 2251 DEB", "OBJECT_ID": "1993-036NN", "EPOCH": "2025-12-20T15:15:17.356320", "MEAN_MOTION": 14.9204959, "ECCENTRICITY": 0.00089033, "INCLINATION": 74.0651, "RA_OF_ASC_NODE": 321.0682, "ARG_OF_PERICENTER": 42.4363, "MEAN_ANOMALY": 317.7507, "EPHEMERIS_TYPE": 0, "CLASSIFICATION_TYPE": "U", "NORAD_CAT_ID": 34316, "ELEMENT_SET_NO": 999, "REV_AT_EPOCH": 89327, "BSTAR": 0.0010271647, "MEAN_MOTION_DOT": 0.00010413, "MEAN_MOTION_DDOT": 0}, "tle": {"line1": "1 34316U 93036NN  25354.63561755  .00010413  00000+0  10272-2 0  9997", "line2": "2 34316  74.0651 321.0682 0008903  42.4363 317.7507 14.92049590893278"}}, "geometry": {"type": "Point", "coordinates": [-21.247777960876043, 48.79689647947432]}}, {"type": "Feature", "properties": {"norad_id": 34317, "name": "COSMOS 2251 DEB", "group": "cosmos-2251-debris", "lat": -23.37799024089666, "lon": -151.19957278569638, "alt_km": 1262.1243947748962, "timestamp": "2025-12-21T07:34:34.908620+00:00", "meta": {"OBJECT_NAME": "COSMOS 2251 DEB", "OBJECT_ID": "1993-036NP", "EPOCH": "2025-12-20T20:53:28.650336", "MEAN_MOTION": 13.65130543, "ECCENTRICITY": 0.03368127, "INCLINATION": 73.9243, "RA_OF_ASC_NODE": 22.3726, "ARG_OF_PERICENTER": 10.0612, "MEAN_ANOMALY": 168.0916, "EPHEMERIS_TYPE": 0, "CLASSIFICATION_TYPE": "U", "NORAD_CAT_ID": 34317, "ELEMENT_SET_NO": 999, "REV_AT_EPOCH": 83730, "BSTAR": 0.00043628238, "MEAN_MOTION_DOT": 4.98e-06, "MEAN_MOTION_DDOT": 0}, "tle": {"line1": "1 34317U 93036NP  25354.87047049  .00000498  00000+0  43628-3 0  9993", "line2": "2 34317  73.9243  22.3726 0336812  10.0612 168.0916 13.65130543837306"}}, "geometry": {"type": "Point", "coordinates": [-151.19957278569638, -23.37799024089666]}}, {"type": "Feature", "properties": {"norad_id": 34321, "name": "COSMOS 2251 DEB", "group": "cosmos-2251-debris", "lat": -10.638112768713743, "lon": 137.1649465316974, "alt_km": 727.2494115302788, "timestamp": "2025-12-21T07:34:34.908629+00:00", "meta": {"OBJECT_NAME": "COSMOS 2251 DEB", "OBJECT_ID": "1993-036NT", "EPOCH": "2025-12-20T20:36:31.597920", "MEAN_MOTION": 14.50086857, "ECCENTRICITY": 0.00159946, "INCLINATION": 74.0274, "RA_OF_ASC_NODE": 141.1072, "ARG_OF_PERICENTER": 270.1348, "MEAN_ANOMALY": 214.107, "EPHEMERIS_TYPE": 0, "CLASSIFICATION_TYPE": "U", "NORAD_CAT_ID": 34321, "ELEMENT_SET_NO": 999, "REV_AT_EPOCH": 88604, "BSTAR": 0.00040067815, "MEAN_MOTION_DOT": 1.529e-05, "MEAN_MOTION_DDOT": 0}, "tle": {"line1": "1 34321U 93036NT  25354.85869905  .00001529  00000+0  40068-3 0  9990", "line2": "2 34321  74.0274 141.1072 0015994 270.1348 214.1070 14.50086857886043"}}, "geometry": {"type": "Point", "coordinates": [137.1649465316974, -10.638112768713743]}}, {"type": "Feature", "properties": {"norad_id": 34323, "name": "COSMOS 2251 DEB", "group": "cosmos-2251-debris", "lat": 37.282220718388764, "lon": 118.93862348046439, "alt_km": 656.30230817955, "timestamp": "2025-12-21T07:34:34.908638+00:00", "meta": {"OBJECT_NAME": "COSMOS 2251 DEB", "OBJECT_ID": "1993-036NV", "EPOCH": "2025-12-20T18:56:34.681056", "MEAN_MOTION": 14.74657697, "ECCENTRICITY": 0.00579829, "INCLINATION": 73.954, "RA_OF_ASC_NODE": 107.3148, "ARG_OF_PERICENTER": 149.4233, "MEAN_ANOMALY": 337.0229, "EPHEMERIS_TYPE": 0, "CLASSIFICATION_TYPE": "U", "NORAD_CAT_ID": 34323, "ELEMENT_SET_NO": 999, "REV_AT_EPOCH": 88558, "BSTAR": 0.0013456641, "MEAN_MOTION_DOT": 9.207e-05, "MEAN_MOTION_DDOT": 0}, "tle": {"line1": "1 34323U 93036NV  25354.78929029  .00009207  00000+0  13457-2 0  9990", "line2": "2 34323  73.9540 107.3148 0057982 149.4233 337.0229 14.74657697885582"}}, "geometry": {"type": "Point", "coordinates": [118.93862348046439, 37.282220718388764]}}, {"type": "Feature", "properties": {"norad_id": 34325, "name": "COSMOS 2251 DEB", "group": "cosmos-2251-debris", "lat": -68.44055781865072, "lon": 44.78602833221323, "alt_km": 817.8411476137608, "timestamp": "2025-12-21T07:34:34.908653+00:00", "meta": {"OBJECT_NAME": "COSMOS 2251 DEB", "OBJECT_ID": "1993-036NX", "EPOCH": "2025-12-20T22:25:57.806976", "MEAN_MOTION": 14.04519498, "ECCENTRICITY": 0.01916656, "INCLINATION": 73.8699, "RA_OF_ASC_NODE": 178.3675, "ARG_OF_PERICENTER": 194.1659, "MEAN_ANOMALY": 293.7662, "EPHEMERIS_TYPE": 0, "CLASSIFICATION_TYPE": "U", "NORAD_CAT_ID": 34325, "ELEMENT_SET_NO": 999, "REV_AT_EPOCH": 85630, "BSTAR": 0.0014044328, "MEAN_MOTION_DOT": 2.616e-05, "MEAN_MOTION_DDOT": 0}, "tle": {"line1": "1 34325U 93036NX  25354.93469684  .00002616  00000+0  14044-2 0  9995", "line2": "2 34325  73.8699 178.3675 0191665 194.1659 293.7662 14.04519498856303"}}, "geometry": {"type": "Point", "coordinates": [44.78602833221323, -68.44055781865072]}}]}